87P/Bus,e,2.6025,181.8637,24.9494,3.438062,0.1546086,0.38922737,17.1120,08/28.0/2020,2000,g  7.2,10.0
# From MPEC 2019-JE2
88P/Howell,e,4.3837,56.6851,235.9138,3.105895,0.1800627,0.56435002,354.6664,08/28.0/2020,2000,g 11.0,6.0
# From MPC100283
89P/Russell,e,12.0702,41.4064,250.2874,3.753927,0.1355113,0.40869234,183.0959,08/28.0/2020,2000,g 11.5,6.0
# From MPC107051
90P/Gehrels,e,9.6422,13.2114,29.0997,6.054664,0.0661560,0.50970831,77.1438,08/28.0/2020,2000,g  8.5,6.0
# From MPC105241
91P/Russell,e,14.0919,247.8275,354.7989,3.890086,0.1284592,0.33055638,350.5743,08/28.0/2020,2000,g  7.5,6.0
# From MPEC 2014-J58
92P/Sanguin,e,19.4828,181.3826,163.7213,5.345251,0.0797539,0.66059327,159.8995,08/28.0/2020,2000,g 12.0,6.0
# From NK 2707
93P/Lovas,e,12.2022,339.6336,74.8486,4.384182,0.1073671,0.61217620,137.0261,08/28.0/2020,2000,g  9.0,4.0
# From MPEC 2013-O31
94P/Russell,e,6.1878,70.8600,92.4971,3.507154,0.1500623,0.36470552,210.4031,08/28.0/2020,2000,g  9.0,4.0
# From MPC 75717
95P/Chiron,e,6.9371,209.2513,339.7920,13.68992,0.0194582,0.37834950,174.5937,08/28.0/2020,2000,g  6.5,2.0
# From MPEC 2017-T14
96P/Machholz,e,57.9616,94.1344,14.6810,3.027385,0.1871124,0.96158612,194.0448,08/28.0/2020,2000,g  9.0,4.0
# From MPC 77020
97P/Metcalf-Brewington,e,17.9020,184.2123,229.5145,4.780227,0.0943042,0.46144990,309.5139,08/28.0/2020,2000,g  5.5,6.0
# From MPEC 2013-H38
98P/Takamizawa,e,10.5614,114.7117,157.9238,3.798406,0.1331380,0.56218106,342.7005,08/28.0/2020,2000,g  9.0,8.0
# From MPEC 2020-L06
99P/Kowal,e,4.3381,28.1189,174.9381,6.112853,0.0652136,0.23021404,321.3479,08/28.0/2020,2000,g  4.5,6.0
# From MPEC 2013-O31
100P/Hartley,e,25.5700,37.7136,182.0026,3.431764,0.1550344,0.41254784,249.4780,08/28.0/2020,2000,g  9.0,4.0
# From MPC115887
101P/Chernykh,e,5.0529,116.2307,277.6957,5.799921,0.0705620,0.59570944,16.1212,08/28.0/2020,2000,g 12.0,4.8
# From MPC 86232
102P/Shoemaker,e,25.8804,339.3685,20.5304,3.815692,0.1322343,0.45753194,340.5134,08/28.0/2020,2000,g  6.5,8.0
# From MPEC 2018-HA5
103P/Hartley,e,13.5949,219.7276,181.2922,3.476535,0.1520492,0.69296482,186.4676,08/28.0/2020,2000,g  8.5,8.0
# From MPC100283
104P/Kowal,e,5.7259,208.1069,226.5050,3.207673,0.1715612,0.66747486,274.1788,08/28.0/2020,2000,g 16.0,4.0
# From MPC109147
105P/Singer Brewster,e,9.1727,192.4187,46.4738,3.466628,0.1527015,0.40982998,114.3694,08/28.0/2020,2000,g 11.5,6.0
# From MPC 92276
106P/Schuster,e,19.5466,48.9725,353.5889,3.765422,0.1348912,0.59424799,312.0251,08/28.0/2020,2000,g 14.0,4.8
# From MPEC 2015-M77
107P/Wilson-Harrington,e,2.7983,266.8112,95.3772,2.625726,0.2316487,0.63130274,191.6316,08/28.0/2020,2000,g  9.0,4.0
# From MPC 89313
108P/Ciffreo,e,11.4461,50.4256,354.2722,3.743647,0.1360698,0.55682764,308.5871,08/28.0/2020,2000,g  8.0,12.0
# From  105, 420
109P/Swift-Tuttle,e,113.9534,139.0659,152.8818,26.11591,0.0073849,0.96308895,74.8337,08/28.0/2020,2000,g  4.0,6.0
# From MPC 92276
110P/Hartley,e,11.7074,287.5336,167.4438,3.600777,0.1442480,0.31789476,299.9425,08/28.0/2020,2000,g  1.0,12.0
# From MPC 75718
111P/Helin-Roman-Crockett,e,4.2274,89.7645,1.1066,4.145172,0.1167859,0.10559116,325.8472,08/28.0/2020,2000,g  5.0,8.0
# From MPC118097
112P/Urata-Niijima,e,24.1909,31.8448,21.4974,3.526190,0.1488488,0.58977991,30.0731,08/28.0/2020,2000,g 14.0,6.0
# From MPEC 2015-E14
113P/Spitaler,e,5.3016,306.7258,115.4293,3.703116,0.1383099,0.42568539,271.6014,08/28.0/2020,2000,g 13.5,4.0
# From MPEC 2019-TG9
114P/Wiseman-Skiff,e,18.2722,271.0582,172.7973,3.546639,0.1475634,0.55472839,33.4880,08/28.0/2020,2000,g 11.5,6.0
# From MPC105241
115P/Maury,e,11.6749,176.0142,121.0120,4.276482,0.1114485,0.51901817,3.2616,08/28.0/2020,2000,g 10.5,6.0
# From MPC106348
116P/Wild,e,3.6039,20.9945,173.3807,3.488721,0.1512533,0.37081936,255.9319,08/28.0/2020,2000,g  2.5,10.0
# From MPEC 2015-S97
117P/Helin-Roman-Alu,e,8.7015,58.8528,222.7503,4.086505,0.1193098,0.25577637,279.1267,08/28.0/2020,2000,g  9.0,4.0
# From MPC 95735
118P/Shoemaker-Levy,e,9.6872,142.8729,312.3003,3.391889,0.1577763,0.45757157,232.5087,08/28.0/2020,2000,g 12.0,4.0
# From MPC 84628
119P/Parker-Hartley,e,7.4907,104.9154,321.2691,3.829301,0.1315300,0.39721774,267.0266,08/28.0/2020,2000,g  3.5,8.0
# From MPC 80901
120P/Mueller,e,8.4878,358.6747,36.4882,3.964129,0.1248770,0.37484009,328.5468,08/28.0/2020,2000,g 12.0,4.0
# From MPC100283
121P/Shoemaker-Holt,e,20.1636,94.1383,11.2508,4.586507,0.1003416,0.18506165,256.3272,08/28.0/2020,2000,g  6.5,8.0
# From MPC 75718
122P/de Vico,e,84.6993,79.5212,13.0183,17.63166,0.0133126,0.96227448,121.3175,08/28.0/2020,2000,g  7.5,5.2
# From MPC114608
123P/West-Hartley,e,15.3314,46.4270,103.3507,3.866316,0.1296457,0.44862592,73.8194,08/28.0/2020,2000,g  4.0,10.0
# From MPEC 2020-K19
124P/Mrkos,e,31.5130,0.3706,183.8609,3.317771,0.1630927,0.50341572,20.0771,08/28.0/2020,2000,g 13.5,2.8
# From MPEC 2015-M77
125P/Spacewatch,e,9.9870,153.1592,87.2251,3.125177,0.1783989,0.51303853,130.4497,08/28.0/2020,2000,g  9.0,4.0
# From MPC 66205
126P/IRAS,e,45.8548,357.8501,356.5021,5.641863,0.0735479,0.69606312,283.4004,08/28.0/2020,2000,g  9.0,4.0
# From MPC 84321
127P/Holt-Olmstead,e,14.2982,13.6471,6.5319,3.449707,0.1538264,0.35983729,250.2720,08/28.0/2020,2000,g 11.0,6.0
# From MPC 89014
128P/Shoemaker-Holt,e,4.3662,214.2931,210.3670,4.493717,0.1034655,0.32042839,137.2613,08/28.0/2020,2000,g  8.5,4.0
# From MPEC 2019-TG9
129P/Shoemaker-Levy,e,3.4429,184.8900,308.1074,4.281491,0.1112530,0.08389912,267.7306,08/28.0/2020,2000,g 11.0,4.0
# From MPC 78188
130P/McNaught-Hughes,e,6.0637,70.2438,245.9665,3.383843,0.1583393,0.46132123,150.2209,08/28.0/2020,2000,g 10.0,6.0
# From MPC102101
131P/Mueller,e,7.3536,214.1724,179.0381,3.681370,0.1395371,0.34364587,81.1882,08/28.0/2020,2000,g 11.0,4.0
# From MPEC 2020-HN5
132P/Helin-Roman-Alu,e,5.3782,174.1021,216.3821,3.884647,0.1287291,0.56537032,303.0828,08/28.0/2020,2000,g 11.0,6.0
# From MPC 94676
133P/Elst-Pizarro,e,1.3891,160.1220,131.7295,3.163833,0.1751394,0.15716165,123.7214,08/28.0/2020,2000,g 15.4,2.0
# From MPC 89012
134P/Kowal-Vavrova,e,4.3433,202.0810,18.8753,6.258005,0.0629579,0.58667975,144.2604,08/28.0/2020,2000,g 11.5,4.0
# From MPEC 2015-E14
135P/Shoemaker-Levy,e,6.0613,213.0441,22.2564,3.804095,0.1328394,0.29549767,282.0155,08/28.0/2020,2000,g  9.0,4.0
# From MPC101100
136P/Mueller,e,9.4239,137.4456,224.8915,4.195082,0.1147079,0.29227199,177.7384,08/28.0/2020,2000,g 11.0,4.0
# From MPEC 2020-HN5
137P/Shoemaker-Levy,e,4.8534,233.0607,141.0097,4.520442,0.1025493,0.57326059,63.9404,08/28.0/2020,2000,g 11.0,4.0
# From MPEC 2016-U66
138P/Shoemaker-Levy,e,10.0910,309.3317,95.5716,3.623078,0.1429182,0.53026422,69.0650,08/28.0/2020,2000,g 15.0,6.0
# From MPEC 2020-HN5
139P/Vaisala-Oterma,e,2.3334,242.1932,165.7749,4.524416,0.1024142,0.24639192,101.6506,08/28.0/2020,2000,g  9.5,4.0
# From MPEC 2015-E14
140P/Bowell-Skiff,e,3.8283,343.3130,172.9173,6.435242,0.0603749,0.69117957,111.6019,08/28.0/2020,2000,g 11.5,6.0
# From MPC105242
141P/Machholz,e,13.9457,241.8525,153.5384,3.056356,0.1844583,0.73565422,339.8191,08/28.0/2020,2000,g 12.0,12.0
# From MPC 95735
141P-H/Machholz,e,12.8431,246.0900,149.4500,3.008012,0.1889230,0.74682218,359.9270,08/24.0/2015,2000,g 18.5,4.0
# From MPC 71683
142P/Ge-Wang,e,12.2400,175.9914,173.9715,5.008901,0.0879206,0.49849136,337.3342,08/28.0/2020,2000,g  9.0,4.0
# From MPEC 2020-K19
143P/Kowal-Mrkos,e,4.6970,245.2665,320.4837,4.285925,0.1110804,0.41057026,93.8748,08/28.0/2020,2000,g 13.5,2.0
# From MPC104795
144P/Kushida,e,3.9746,243.7840,215.9537,3.811485,0.1324533,0.63844849,195.0161,08/28.0/2020,2000,g  8.5,8.0
# From MPC108598
145P/Shoemaker-Levy,e,11.2671,26.7892,10.2598,4.139907,0.1170087,0.54099150,127.7867,08/28.0/2020,2000,g 13.5,4.0
# From MPC100284
146P/Shoemaker-LINEAR,e,23.0846,53.4197,316.9150,4.033284,0.1216791,0.64661797,184.9045,08/28.0/2020,2000,g 15.0,4.0
# From MPC 75720
147P/Kushida-Muramatsu,e,2.3630,93.3168,351.2182,3.949501,0.1255714,0.24190122,210.4745,08/28.0/2020,2000,g 14.0,4.0
# From MPEC 2014-R70
148P/Anderson-LINEAR,e,3.6738,89.5634,6.9806,3.644863,0.1416388,0.54842913,267.3092,08/28.0/2020,2000,g  9.0,4.0
# From MPC 75720
149P/Mueller,e,29.8316,145.1047,44.1512,4.328778,0.1094350,0.39120824,60.9412,08/28.0/2020,2000,g  8.0,8.0
# From MPC 75720
150P/LONEOS,e,18.5075,272.4037,245.5693,3.880110,0.1289549,0.54656844,192.9930,08/28.0/2020,2000,g 13.5,4.0
# From MPEC 2015-Q71
151P/Helin,e,4.7272,143.1507,216.0480,5.764541,0.0712126,0.57305655,127.0869,08/28.0/2020,2000,g 10.0,6.0
# From MPC 79346
152P/Helin-Lawrence,e,9.8797,91.8677,163.8347,4.480546,0.1039220,0.30909193,307.7082,08/28.0/2020,2000,g 11.5,4.0
# From MPC 46101
153P/Ikeya-Zhang,e,27.7254,93.0640,35.1968,50.83952,0.0027190,0.98964210,0.0000,03/09.6844/2002,2000,g  9.0,4.0
# From MPC 87068
154P/Brewington,e,17.6305,343.0200,47.8443,4.803659,0.0936151,0.67522485,230.1844,08/28.0/2020,2000,g  2.5,12.0
# From MPC118098
155P/Shoemaker,e,6.3959,97.1972,14.6512,6.584253,0.0583370,0.72636532,16.7438,08/28.0/2020,2000,g 10.0,4.8
# From MPEC 2020-K19
156P/Russell-LINEAR,e,17.2628,35.3706,0.4216,3.460029,0.1531385,0.61473086,347.4629,08/28.0/2020,2000,g 15.5,2.0
# From MPC104795
157P/Tritton,e,12.7745,287.9430,155.3081,3.530073,0.1486033,0.56830005,250.6559,08/28.0/2020,2000,g 10.0,4.0
# From MPEC 2016-K18
158P/Kowal-LINEAR,e,7.9532,135.7066,185.9498,4.884592,0.0912981,0.01867823,323.0963,08/28.0/2020,2000,g  9.0,4.0
# From MPEC 2020-L06
159P/LONEOS,e,23.4616,55.0017,4.6147,5.856157,0.0695481,0.38149589,57.6572,08/28.0/2020,2000,g 10.0,4.0
# From MPEC 2019-TG9
160P/LINEAR,e,15.6158,333.3643,12.6693,3.772723,0.1344998,0.52620656,36.2717,08/28.0/2020,2000,g 15.5,2.0
# From MPC 75721
161P/Hartley-IRAS,e,95.7519,1.4840,46.9238,7.726886,0.0458878,0.83456124,255.1894,08/28.0/2020,2000,g  8.5,6.0
# From MPEC 2020-K19
162P/Siding Spring,e,27.5543,30.9133,357.1265,3.090895,0.1813751,0.58291627,341.5337,08/28.0/2020,2000,g 12.0,4.0
# From MPEC 2020-HN5
